OBJECT_NAME,OBJECT_ID,EPOCH,MEAN_MOTION,ECCENTRICITY,INCLINATION,RA_OF_ASC_NODE,ARG_OF_PERICENTER,MEAN_ANOMALY,EPHEMERIS_TYPE,CLASSIFICATION_TYPE,NORAD_CAT_ID,ELEMENT_SET_NO,REV_AT_EPOCH,BSTAR,MEAN_MOTION_DOT,MEAN_MOTION_DDOT
YUNHAI-2 01E,2018-112E,2026-05-17T04:07:54.605856,14.28998194,.0004979,50.0083,298.4032,254.2741,105.7625,0,U,43913,999,38472,.49985E-4,-.34E-6,0
HONGYAN 1 (CHONGQING),2018-112F,2026-05-16T20:31:34.624704,13.43818842,.00066858,50.0097,352.2541,160.9931,199.1198,0,U,43914,999,36232,.23585209E-4,-.115E-5,0
YUNHAI-2 01F,2018-112G,2026-05-17T02:56:05.924256,14.29016171,.0006952,50.0126,359.5156,218.2530,141.7892,0,U,43915,999,38386,.86075E-4,.58E-6,0
ZHONGXING-2D,2019-001A,2026-05-17T04:42:57.462624,1.00272666,.0001185,0.0169,271.1253,66.7464,97.7764,0,U,43920,999,5376,0,-.329E-5,0
IRIDIUM 180,2019-002A,2026-05-17T02:08:06.968256,14.34218112,.0002196,86.3992,6.5980,88.7450,271.3997,0,U,43922,999,38453,.27136E-4,.96E-6,0
IRIDIUM 176,2019-002B,2026-05-17T03:58:37.242048,14.72256893,.0002214,86.6112,6.5139,84.1365,276.0104,0,U,43923,999,39468,.72626E-4,.483E-5,0
IRIDIUM 168,2019-002C,2026-05-17T03:39:26.909856,14.34218177,.0002169,86.3995,6.6478,86.3736,273.7707,0,U,43924,999,38452,.24163E-4,.87E-6,0
IRIDIUM 173,2019-002D,2026-05-17T03:21:10.943136,14.34217316,.0002198,86.3987,6.5429,86.8155,273.3292,0,U,43925,999,38450,-.22453E-4,-.43E-6,0
IRIDIUM 169,2019-002E,2026-05-17T03:51:34.327008,14.38607989,.0002849,86.4248,38.1607,78.5874,281.5644,0,U,43926,999,38576,.78888E-4,.261E-5,0
IRIDIUM 172,2019-002F,2026-05-17T03:12:02.602944,14.34220666,.0002293,86.3990,6.5538,90.1508,269.9951,0,U,43927,999,38451,.54282E-4,.172E-5,0
IRIDIUM 175,2019-002G,2026-05-16T22:41:15.383616,14.43593656,.0002692,86.4485,303.5876,10.2913,349.8342,0,U,43928,999,39447,.25843E-4,.108E-5,0
IRIDIUM 171,2019-002H,2026-05-17T02:44:38.874912,14.34217734,.0002181,86.4001,6.8644,81.6728,278.4715,0,U,43929,999,38450,.43012E-4,.14E-5,0
IRIDIUM 170,2019-002J,2026-05-17T04:07:31.387584,14.72253673,.000234,86.6111,6.5139,89.7478,270.4007,0,U,43930,999,39469,.65508E-4,.438E-5,0
IRIDIUM 167,2019-002K,2026-05-17T00:55:02.970912,14.34217749,.000224,86.3993,6.6156,77.5109,282.6338,0,U,43931,999,38449,.76359E-5,.41E-6,0
JILIN-1 09,2019-005B,2026-05-17T04:20:20.622336,15.20216037,.0002505,97.4725,232.4180,160.2842,199.8491,0,U,43943,999,40443,.14829E-3,.3145E-4,0
JILIN-1 10,2019-005E,2026-05-17T04:00:15.367392,15.25356757,.0008846,97.4768,235.9839,38.3848,321.8017,0,U,43946,999,40458,.17114E-3,.4246E-4,0
HELLAS-SAT 4 & SGS-1,2019-007A,2026-05-17T04:17:07.438848,1.00272056,.000439,0.0683,121.1370,15.7753,201.3047,0,U,44034,999,2705,0,.161E-5,0
GSAT-31,2019-007B,2026-05-17T04:19:37.201152,1.00271871,.0002345,0.0094,53.6492,290.2653,3.7435,0,U,44035,999,2665,0,.133E-5,0
EGYPTSAT-A (MISRSAT-A),2019-008A,2026-05-17T03:39:21.890880,14.72268702,.0001274,98.0058,202.3702,79.7189,280.4162,0,U,44047,999,38867,.10492E-3,.613E-5,0
NUSANTARA SATU,2019-009A,2026-05-16T21:56:59.404416,1.00276378,.0003784,0.0481,132.6925,332.7396,244.4635,0,U,44048,999,2645,0,-.224E-5,0
ONEWEB-0012,2019-010A,2026-05-17T00:26:32.046144,13.16595166,.0002383,87.9105,234.9733,96.1593,263.9809,0,U,44057,999,34746,.68924E-4,.39E-6,0
ONEWEB-0010,2019-010B,2026-05-16T17:45:15.749568,13.16596353,.00016184,87.9105,235.0246,95.5193,264.6122,0,U,44058,999,34747,.21846434E-3,.96E-6,0
ONEWEB-0008,2019-010C,2026-05-16T23:50:03.903936,13.16593554,.0002052,87.9099,234.9699,108.6048,251.5306,0,U,44059,999,34762,-.22268E-3,-.72E-6,0
ONEWEB-0007,2019-010D,2026-05-16T14:57:18.537408,13.15549882,.0001905,87.8979,265.5127,89.8622,270.2727,0,U,44060,999,34722,-.32217E-3,-.108E-5,0
ONEWEB-0006,2019-010E,2026-05-17T02:00:09.027648,13.15549939,.0001732,87.8990,265.3817,95.8206,264.3122,0,U,44061,999,34733,-.41502E-3,-.143E-5,0
ONEWEB-0011,2019-010F,2026-05-17T01:14:32.057952,13.15548661,.0001671,87.8995,265.3975,103.1550,256.9767,0,U,44062,999,34732,.11698E-3,.57E-6,0
S5,2019-009D,2026-05-17T03:08:35.140992,0.99338592,.0002124,6.4850,71.2017,135.1631,22.6261,0,U,44065,999,2613,0,-.223E-5,0
ZHONGXING-6C,2019-012A,2026-05-17T09:06:38.454336,1.00272212,.0012652,0.0865,79.7210,324.0669,98.3868,0,U,44067,999,2643,0,-.328E-5,0
WGS 10 (USA 291),2019-014A,2026-05-16T14:41:46.711680,1.00271456,.0000534,0.0171,333.8040,331.4561,209.8203,0,U,44071,999,2630,0,.57E-6,0
PRISMA,2019-015A,2026-05-17T04:26:32.870688,14.83693101,.0001366,97.8655,212.4176,94.7351,265.4019,0,U,44072,999,38745,.11277E-3,.879E-5,0
TIANLIAN 2-01,2019-017A,2026-05-17T04:27:36.435168,1.00271063,.0000843,0.4603,82.9724,290.7435,5.1158,0,U,44076,999,2633,0,-.98E-6,0
