YUNHAI-2 01E            
1 43913U 18112E   26137.17215979 -.00000034  00000+0  49985-4 0  9999
2 43913  50.0083 298.4032 0004979 254.2741 105.7625 14.28998194384725
HONGYAN 1 (CHONGQING)   
1 43914U 18112F   26136.85526186 -.00000115  00000+0  23585-4 0  9997
2 43914  50.0097 352.2541 0006685 160.9931 199.1198 13.43818842362326
YUNHAI-2 01F            
1 43915U 18112G   26137.12229079  .00000058  00000+0  86075-4 0  9998
2 43915  50.0126 359.5156 0006952 218.2530 141.7892 14.29016171383867
ZHONGXING-2D            
1 43920U 19001A   26137.19649841 -.00000329  00000+0  00000+0 0  9993
2 43920   0.0169 271.1253 0001185  66.7464  97.7764  1.00272666 53766
IRIDIUM 180             
1 43922U 19002A   26137.08896954  .00000096  00000+0  27136-4 0  9997
2 43922  86.3992   6.5980 0002196  88.7450 271.3997 14.34218112384535
IRIDIUM 176             
1 43923U 19002B   26137.16570882  .00000483  00000+0  72626-4 0  9990
2 43923  86.6112   6.5139 0002214  84.1365 276.0104 14.72256893394684
IRIDIUM 168             
1 43924U 19002C   26137.15239479  .00000087  00000+0  24163-4 0  9997
2 43924  86.3995   6.6478 0002169  86.3736 273.7707 14.34218177384529
IRIDIUM 173             
1 43925U 19002D   26137.13970999 -.00000043  00000+0 -22453-4 0  9999
2 43925  86.3987   6.5429 0002198  86.8155 273.3292 14.34217316384505
IRIDIUM 169             
1 43926U 19002E   26137.16081397  .00000261  00000+0  78888-4 0  9991
2 43926  86.4248  38.1607 0002849  78.5874 281.5644 14.38607989385769
IRIDIUM 172             
1 43927U 19002F   26137.13336346  .00000172  00000+0  54282-4 0  9999
2 43927  86.3990   6.5538 0002293  90.1508 269.9951 14.34220666384514
IRIDIUM 175             
1 43928U 19002G   26136.94531694  .00000108  00000+0  25843-4 0  9991
2 43928  86.4485 303.5876 0002692  10.2913 349.8342 14.43593656394476
IRIDIUM 171             
1 43929U 19002H   26137.11433883  .00000140  00000+0  43012-4 0  9997
2 43929  86.4001   6.8644 0002181  81.6728 278.4715 14.34217734384500
IRIDIUM 170             
1 43930U 19002J   26137.17189106  .00000438  00000+0  65508-4 0  9995
2 43930  86.6111   6.5139 0002340  89.7478 270.4007 14.72253673394691
IRIDIUM 167             
1 43931U 19002K   26137.03822883  .00000041  00000+0  76359-5 0  9994
2 43931  86.3993   6.6156 0002240  77.5109 282.6338 14.34217749384493
JILIN-1 09              
1 43943U 19005B   26137.18079424  .00003145  00000+0  14829-3 0  9991
2 43943  97.4725 232.4180 0002505 160.2842 199.8491 15.20216037404437
JILIN-1 10              
1 43946U 19005E   26137.16684453  .00004246  00000+0  17114-3 0  9999
2 43946  97.4768 235.9839 0008846  38.3848 321.8017 15.25356757404587
HELLAS-SAT 4 & SGS-1    
1 44034U 19007A   26137.17855832  .00000161  00000+0  00000+0 0  9996
2 44034   0.0683 121.1370 0004390  15.7753 201.3047  1.00272056 27057
GSAT-31                 
1 44035U 19007B   26137.18029168  .00000133  00000+0  00000+0 0  9992
2 44035   0.0094  53.6492 0002345 290.2653   3.7435  1.00271871 26659
EGYPTSAT-A (MISRSAT-A)  
1 44047U 19008A   26137.15233670  .00000613  00000+0  10492-3 0  9991
2 44047  98.0058 202.3702 0001274  79.7189 280.4162 14.72268702388676
NUSANTARA SATU          
1 44048U 19009A   26136.91457644 -.00000224  00000+0  00000+0 0  9994
2 44048   0.0481 132.6925 0003784 332.7396 244.4635  1.00276378 26457
ONEWEB-0012             
1 44057U 19010A   26137.01842646  .00000039  00000+0  68924-4 0  9995
2 44057  87.9105 234.9733 0002383  96.1593 263.9809 13.16595166347466
ONEWEB-0010             
1 44058U 19010B   26136.73976562  .00000096  00000+0  21846-3 0  9993
2 44058  87.9105 235.0246 0001618  95.5193 264.6122 13.16596353347473
ONEWEB-0008             
1 44059U 19010C   26136.99310074 -.00000072  00000+0 -22268-3 0  9997
2 44059  87.9099 234.9699 0002052 108.6048 251.5306 13.16593554347620
ONEWEB-0007             
1 44060U 19010D   26136.62313122 -.00000108  00000+0 -32217-3 0  9991
2 44060  87.8979 265.5127 0001905  89.8622 270.2727 13.15549882347223
ONEWEB-0006             
1 44061U 19010E   26137.08343782 -.00000143  00000+0 -41502-3 0  9994
2 44061  87.8990 265.3817 0001732  95.8206 264.3122 13.15549939347332
ONEWEB-0011             
1 44062U 19010F   26137.05175993  .00000057  00000+0  11698-3 0  9994
2 44062  87.8995 265.3975 0001671 103.1550 256.9767 13.15548661347322
S5                      
1 44065U 19009D   26137.13096228 -.00000223  00000+0  00000+0 0  9994
2 44065   6.4850  71.2017 0002124 135.1631  22.6261  0.99338592 26130
ZHONGXING-6C            
1 44067U 19012A   26137.37961174 -.00000328  00000+0  00000+0 0  9993
2 44067   0.0865  79.7210 0012652 324.0669  98.3868  1.00272212 26438
WGS 10 (USA 291)        
1 44071U 19014A   26136.61234620  .00000057  00000+0  00000+0 0  9993
2 44071   0.0171 333.8040 0000534 331.4561 209.8203  1.00271456 26304
PRISMA                  
1 44072U 19015A   26137.18510267  .00000879  00000+0  11277-3 0  9996
2 44072  97.8655 212.4176 0001366  94.7351 265.4019 14.83693101387457
TIANLIAN 2-01           
1 44076U 19017A   26137.18583837 -.00000098  00000+0  00000+0 0  9997
2 44076   0.4603  82.9724 0000843 290.7435   5.1158  1.00271063 26337
